start=new Date('2022-11-21T00:00:00.000Z').valueOf();
sats=[{"TLE_LINE2":"2 47633  53.0563  80.7553 0001405  80.8733 279.2415 15.06393751 98393","ELEMENT_SET_NO":"999","BSTAR":"0.00003000100000","LAUNCH_DATE":"2021-02-16","NORAD_CAT_ID":"47633","APOAPSIS":"548.206","REF_FRAME":"TEME","INCLINATION":"53.0563","TLE_LINE1":"1 47633U 21012P   22324.76814969  .00000165  00000-0  30001-4 0  9992","CLASSIFICATION_TYPE":"U","GP_ID":"218360834","PERIAPSIS":"546.260","MEAN_ANOMALY":"279.2415","RCS_SIZE":"LARGE","MEAN_MOTION":"15.06393751","SITE":"AFETR","DECAY_DATE":null,"CENTER_NAME":"EARTH","OBJECT_NAME":"STARLINK-2009","SEMIMAJOR_AXIS":"6925.368","MEAN_MOTION_DOT":"0.00000165","MEAN_MOTION_DDOT":"0.0000000000000","EPOCH":"2022-11-20T18:26:08.133216","PERIOD":"95.593","MEAN_ELEMENT_THEORY":"SGP4","OBJECT_TYPE":"PAYLOAD","RA_OF_ASC_NODE":"80.7553","OBJECT_ID":"2021-012P","EPHEMERIS_TYPE":"0","ARG_OF_PERICENTER":"80.8733","COUNTRY_CODE":"US","FILE":"3665715","TIME_SYSTEM":"UTC","REV_AT_EPOCH":"9839","ECCENTRICITY":"0.00014050"},{"CENTER_NAME":"EARTH","PERIOD":"95.592","MEAN_MOTION_DDOT":"0.0000000000000","EPOCH":"2022-11-20T14:39:15.662880","MEAN_MOTION_DOT":"0.00000997","OBJECT_NAME":"STARLINK-2010","SEMIMAJOR_AXIS":"6925.345","MEAN_ELEMENT_THEORY":"SGP4","OBJECT_TYPE":"PAYLOAD","RA_OF_ASC_NODE":"81.4363","ARG_OF_PERICENTER":"91.5347","EPHEMERIS_TYPE":"0","OBJECT_ID":"2021-012Q","FILE":"3665715","COUNTRY_CODE":"US","ECCENTRICITY":"0.00014690","REV_AT_EPOCH":"9834","TIME_SYSTEM":"UTC","BSTAR":"0.00008581800000","ELEMENT_SET_NO":"999","TLE_LINE2":"2 47634  53.0575  81.4363 0001469  91.5347 268.5811 15.06401313 98344","NORAD_CAT_ID":"47634","LAUNCH_DATE":"2021-02-16","REF_FRAME":"TEME","APOAPSIS":"548.227","INCLINATION":"53.0575","GP_ID":"218359582","TLE_LINE1":"1 47634U 21012Q   22324.61059795  .00000997  00000-0  85818-4 0  9994","CLASSIFICATION_TYPE":"U","PERIAPSIS":"546.192","RCS_SIZE":"LARGE","MEAN_ANOMALY":"268.5811","DECAY_DATE":null,"SITE":"AFETR","MEAN_MOTION":"15.06401313"},{"REF_FRAME":"TEME","APOAPSIS":"548.589","INCLINATION":"53.0556","ELEMENT_SET_NO":"999","TLE_LINE2":"2 47635  53.0556 345.7295 0001968  45.3923 314.7227 15.06395973 99705","BSTAR":"0.00004605000000","NORAD_CAT_ID":"47635","LAUNCH_DATE":"2021-02-16","MEAN_ANOMALY":"314.7227","RCS_SIZE":"LARGE","DECAY_DATE":null,"MEAN_MOTION":"15.06395973","SITE":"AFETR","GP_ID":"218359333","CLASSIFICATION_TYPE":"U","TLE_LINE1":"1 47635U 21012R   22324.76862855  .00000404  00000-0  46050-4 0  9998","PERIAPSIS":"545.863","MEAN_ELEMENT_THEORY":"SGP4","OBJECT_TYPE":"PAYLOAD","CENTER_NAME":"EARTH","PERIOD":"95.592","SEMIMAJOR_AXIS":"6925.361","OBJECT_NAME":"STARLINK-2012","MEAN_MOTION_DDOT":"0.0000000000000","EPOCH":"2022-11-20T18:26:49.506720","MEAN_MOTION_DOT":"0.00000404","FILE":"3665715","COUNTRY_CODE":"US","ECCENTRICITY":"0.00019680","REV_AT_EPOCH":"9970","TIME_SYSTEM":"UTC","RA_OF_ASC_NODE":"345.7295","EPHEMERIS_TYPE":"0","ARG_OF_PERICENTER":"45.3923","OBJECT_ID":"2021-012R"},{"REF_FRAME":"TEME","APOAPSIS":"548.312","INCLINATION":"53.0576","BSTAR":"-0.00001038900000","ELEMENT_SET_NO":"999","TLE_LINE2":"2 47636  53.0576  61.2057 0001569 108.6366 251.4794 15.06396046 98634","NORAD_CAT_ID":"47636","LAUNCH_DATE":"2021-02-16","RCS_SIZE":"LARGE","MEAN_ANOMALY":"251.4794","DECAY_DATE":null,"SITE":"AFETR","MEAN_MOTION":"15.06396046","GP_ID":"218360584","CLASSIFICATION_TYPE":"U","TLE_LINE1":"1 47636U 21012S   22324.66404748 -.00000436  00000-0 -10389-4 0  9994","PERIAPSIS":"546.139","MEAN_ELEMENT_THEORY":"SGP4","OBJECT_TYPE":"PAYLOAD","CENTER_NAME":"EARTH","PERIOD":"95.592","MEAN_MOTION_DDOT":"0.0000000000000","EPOCH":"2022-11-20T15:56:13.702272","MEAN_MOTION_DOT":"-0.00000436","OBJECT_NAME":"STARLINK-2013","SEMIMAJOR_AXIS":"6925.361","FILE":"3665715","COUNTRY_CODE":"US","ECCENTRICITY":"0.00015690","REV_AT_EPOCH":"9863","TIME_SYSTEM":"UTC","RA_OF_ASC_NODE":"61.2057","EPHEMERIS_TYPE":"0","ARG_OF_PERICENTER":"108.6366","OBJECT_ID":"2021-012S"},{"OBJECT_NAME":"STARLINK-2014","SEMIMAJOR_AXIS":"6925.391","EPOCH":"2022-11-20T13:38:13.625664","MEAN_MOTION_DDOT":"0.0000000000000","MEAN_MOTION_DOT":"0.00000437","PERIOD":"95.593","CENTER_NAME":"EARTH","OBJECT_TYPE":"PAYLOAD","MEAN_ELEMENT_THEORY":"SGP4","OBJECT_ID":"2021-012T","EPHEMERIS_TYPE":"0","ARG_OF_PERICENTER":"86.2721","RA_OF_ASC_NODE":"61.6236","TIME_SYSTEM":"UTC","ECCENTRICITY":"0.00014520","REV_AT_EPOCH":"9863","COUNTRY_CODE":"US","FILE":"3665715","LAUNCH_DATE":"2021-02-16","NORAD_CAT_ID":"47637","ELEMENT_SET_NO":"999","TLE_LINE2":"2 47637  53.0562  61.6236 0001452  86.2721 273.8434 15.06386031 98632","BSTAR":"0.00004826000000","INCLINATION":"53.0562","APOAPSIS":"548.262","REF_FRAME":"TEME","PERIAPSIS":"546.251","TLE_LINE1":"1 47637U 21012T   22324.56821326  .00000437  00000-0  48260-4 0  9997","CLASSIFICATION_TYPE":"U","GP_ID":"218360335","MEAN_MOTION":"15.06386031","SITE":"AFETR","DECAY_DATE":null,"MEAN_ANOMALY":"273.8434","RCS_SIZE":"LARGE"},{"BSTAR":"-0.00010637000000","ELEMENT_SET_NO":"999","TLE_LINE2":"2 47638  53.0560 346.9180 0001617  70.4391 289.6772 15.06398858 99146","NORAD_CAT_ID":"47638","LAUNCH_DATE":"2021-02-16","REF_FRAME":"TEME","APOAPSIS":"548.337","INCLINATION":"53.0560","GP_ID":"218322007","TLE_LINE1":"1 47638U 21012U   22324.49955579 -.00001866  00000-0 -10637-3 0  9993","CLASSIFICATION_TYPE":"U","PERIAPSIS":"546.097","RCS_SIZE":"LARGE","MEAN_ANOMALY":"289.6772","DECAY_DATE":null,"SITE":"AFETR","MEAN_MOTION":"15.06398858","CENTER_NAME":"EARTH","PERIOD":"95.592","EPOCH":"2022-11-20T11:59:21.620256","MEAN_MOTION_DDOT":"0.0000000000000","MEAN_MOTION_DOT":"-0.00001866","OBJECT_NAME":"STARLINK-2015","SEMIMAJOR_AXIS":"6925.352","MEAN_ELEMENT_THEORY":"SGP4","OBJECT_TYPE":"PAYLOAD","RA_OF_ASC_NODE":"346.9180","ARG_OF_PERICENTER":"70.4391","EPHEMERIS_TYPE":"0","OBJECT_ID":"2021-012U","FILE":"3665036","COUNTRY_CODE":"US","REV_AT_EPOCH":"9914","ECCENTRICITY":"0.00016170","TIME_SYSTEM":"UTC"},{"PERIAPSIS":"546.283","TLE_LINE1":"1 47639U 21012V   22324.54609090  .00003200  00000-0  23361-3 0  9994","CLASSIFICATION_TYPE":"U","GP_ID":"218289555","SITE":"AFETR","MEAN_MOTION":"15.06403432","DECAY_DATE":null,"RCS_SIZE":"LARGE","MEAN_ANOMALY":"269.1531","LAUNCH_DATE":"2021-02-16","NORAD_CAT_ID":"47639","BSTAR":"0.00023361000000","TLE_LINE2":"2 47639  53.0557  61.7325 0001329  90.9610 269.1531 15.06403432 98608","ELEMENT_SET_NO":"999","INCLINATION":"53.0557","APOAPSIS":"548.123","REF_FRAME":"TEME","OBJECT_ID":"2021-012V","EPHEMERIS_TYPE":"0","ARG_OF_PERICENTER":"90.9610","RA_OF_ASC_NODE":"61.7325","TIME_SYSTEM":"UTC","REV_AT_EPOCH":"9860","ECCENTRICITY":"0.00013290","COUNTRY_CODE":"US","FILE":"3664760","MEAN_MOTION_DOT":"0.00003200","MEAN_MOTION_DDOT":"0.0000000000000","EPOCH":"2022-11-20T13:06:22.253760","OBJECT_NAME":"STARLINK-2016","SEMIMAJOR_AXIS":"6925.338","PERIOD":"95.592","CENTER_NAME":"EARTH","OBJECT_TYPE":"PAYLOAD","MEAN_ELEMENT_THEORY":"SGP4"},{"OBJECT_ID":"2021-012W","ARG_OF_PERICENTER":"84.1058","EPHEMERIS_TYPE":"0","RA_OF_ASC_NODE":"80.8508","TIME_SYSTEM":"UTC","ECCENTRICITY":"0.00014350","REV_AT_EPOCH":"9837","COUNTRY_CODE":"US","FILE":"3665715","SEMIMAJOR_AXIS":"6925.363","OBJECT_NAME":"STARLINK-2018","MEAN_MOTION_DDOT":"0.0000000000000","MEAN_MOTION_DOT":"0.00001989","EPOCH":"2022-11-20T17:45:01.906560","PERIOD":"95.592","CENTER_NAME":"EARTH","OBJECT_TYPE":"PAYLOAD","MEAN_ELEMENT_THEORY":"SGP4","PERIAPSIS":"546.234","TLE_LINE1":"1 47640U 21012W   22324.73960540  .00001989  00000-0  15239-3 0  9994","CLASSIFICATION_TYPE":"U","GP_ID":"218360085","MEAN_MOTION":"15.06395433","SITE":"AFETR","DECAY_DATE":null,"MEAN_ANOMALY":"276.0095","RCS_SIZE":"LARGE","LAUNCH_DATE":"2021-02-16","NORAD_CAT_ID":"47640","TLE_LINE2":"2 47640  53.0562  80.8508 0001435  84.1058 276.0095 15.06395433 98377","ELEMENT_SET_NO":"999","BSTAR":"0.00015239000000","INCLINATION":"53.0562","APOAPSIS":"548.221","REF_FRAME":"TEME"},{"PERIAPSIS":"545.971","GP_ID":"218360835","TLE_LINE1":"1 47641U 21012X   22324.55115887 -.00000162  00000-0  80366-5 0  9999","CLASSIFICATION_TYPE":"U","DECAY_DATE":null,"SITE":"AFETR","MEAN_MOTION":"15.06398759","RCS_SIZE":"LARGE","MEAN_ANOMALY":"301.1170","NORAD_CAT_ID":"47641","LAUNCH_DATE":"2021-02-16","BSTAR":"0.00000803660000","ELEMENT_SET_NO":"999","TLE_LINE2":"2 47641  53.0539 346.6997 0001800  58.9996 301.1170 15.06398759 99653","INCLINATION":"53.0539","REF_FRAME":"TEME","APOAPSIS":"548.464","ARG_OF_PERICENTER":"58.9996","EPHEMERIS_TYPE":"0","OBJECT_ID":"2021-012X","RA_OF_ASC_NODE":"346.6997","REV_AT_EPOCH":"9965","ECCENTRICITY":"0.00018000","TIME_SYSTEM":"UTC","FILE":"3665715","COUNTRY_CODE":"US","PERIOD":"95.592","MEAN_MOTION_DDOT":"0.0000000000000","MEAN_MOTION_DOT":"-0.00000162","EPOCH":"2022-11-20T13:13:40.126368","OBJECT_NAME":"STARLINK-2019","SEMIMAJOR_AXIS":"6925.352","CENTER_NAME":"EARTH","OBJECT_TYPE":"PAYLOAD","MEAN_ELEMENT_THEORY":"SGP4"},{"REV_AT_EPOCH":"9843","ECCENTRICITY":"0.00012170","TIME_SYSTEM":"UTC","FILE":"3665715","COUNTRY_CODE":"US","EPHEMERIS_TYPE":"0","ARG_OF_PERICENTER":"100.0018","OBJECT_ID":"2021-012Y","RA_OF_ASC_NODE":"75.8102","OBJECT_TYPE":"PAYLOAD","MEAN_ELEMENT_THEORY":"SGP4","PERIOD":"95.593","OBJECT_NAME":"STARLINK-2020","SEMIMAJOR_AXIS":"6925.374","EPOCH":"2022-11-20T17:53:38.958720","MEAN_MOTION_DDOT":"0.0000000000000","MEAN_MOTION_DOT":"0.00001319","CENTER_NAME":"EARTH","DECAY_DATE":null,"MEAN_MOTION":"15.06391693","SITE":"AFETR","MEAN_ANOMALY":"260.1108","RCS_SIZE":"LARGE","PERIAPSIS":"546.396","GP_ID":"218359583","TLE_LINE1":"1 47642U 21012Y   22324.74558980  .00001319  00000-0  10747-3 0  9994","CLASSIFICATION_TYPE":"U","INCLINATION":"53.0559","REF_FRAME":"TEME","APOAPSIS":"548.082","NORAD_CAT_ID":"47642","LAUNCH_DATE":"2021-02-16","TLE_LINE2":"2 47642  53.0559  75.8102 0001217 100.0018 260.1108 15.06391693 98431","ELEMENT_SET_NO":"999","BSTAR":"0.00010747000000"}];
